ONEWEB-0527             
1 54642U 22166A   25306.45997804 -.00000015  00000+0 -67713-4 0  9995
2 54642  87.9172 289.2316 0002009  87.9625 272.1739 13.21828055141581
ONEWEB-0528             
1 54643U 22166B   25306.46657215 -.00000035  00000+0 -11522-3 0  9994
2 54643  87.9173 289.2340 0002006  89.0857 271.0507 13.21824349141591
ONEWEB-0539             
1 54644U 22166C   25306.42873341  .00000017  00000+0  97469-5 0  9995
2 54644  87.9169 289.2079 0001745  93.0547 267.0787 13.21827741141589
ONEWEB-0540             
1 54645U 22166D   25306.43545216  .00000049  00000+0  87629-4 0  9995
2 54645  87.9168 289.2447 0001738  91.7959 268.3374 13.21827342141574
ONEWEB-0542             
1 54646U 22166E   25306.43859025 -.00000984  00000+0 -24133-2 0  9991
2 54646  87.9165 289.2032 0001571  89.8891 270.2423 13.21830481141586
ONEWEB-0545             
1 54647U 22166F   25306.47973273  .00000036  00000+0  55147-4 0  9995
2 54647  87.9171 289.2147 0001488  96.1019 264.0284 13.21825619141551
ONEWEB-0580             
1 54648U 22166G   25306.45340014  .00000105  00000+0  22157-3 0  9996
2 54648  87.9176 289.2183 0001539  85.7266 274.4044 13.21826064141590
ONEWEB-0582             
1 54649U 22166H   25306.49620186  .00000055  00000+0  10259-3 0  9996
2 54649  87.9171 289.2029 0001340  86.4776 273.6511 13.21827011141570
ONEWEB-0583             
1 54650U 22166J   25306.43202348 -.00000014  00000+0 -65860-4 0  9994
2 54650  87.9170 289.2411 0001776  90.0211 270.1127 13.21827683141574
ONEWEB-0584             
1 54651U 22166K   25306.45177220  .00000037  00000+0  58180-4 0  9997
2 54651  87.9173 289.2222 0001571  82.0069 278.1244 13.21826587141562
ONEWEB-0585             
1 54652U 22166L   25306.47643176  .00000023  00000+0  24502-4 0  9994
2 54652  87.9174 289.2027 0002013  85.9468 274.1896 13.21823160141578
ONEWEB-0586             
1 54653U 22166M   25306.48961785  .00000055  00000+0  10080-3 0  9995
2 54653  87.9168 289.2260 0001765  89.3157 270.8179 13.21826979141575
ONEWEB-0587             
1 54654U 22166N   25306.49949104  .00000089  00000+0  18346-3 0  9998
2 54654  87.9179 289.1757 0002291  85.1736 274.9659 13.21827262141732
ONEWEB-0589             
1 54655U 22166P   25306.48629924 -.00000045  00000+0 -13941-3 0  9993
2 54655  87.9170 289.2175 0001101  76.3051 283.8206 13.21828203141597
ONEWEB-0590             
1 54656U 22166Q   25306.43517807  .00000163  00000+0  36374-3 0  9999
2 54656  87.9168 289.2037 0001974  73.9927 286.1425 13.21826314141573
ONEWEB-0591             
1 54657U 22166R   25306.44683639  .00000140  00000+0  30795-3 0  9994
2 54657  87.9168 289.2251 0001831  84.5619 275.5724 13.21825712141609
ONEWEB-0592             
1 54658U 22166S   25306.45012920  .00000266  00000+0  61197-3 0  9994
2 54658  87.9180 289.1834 0001826  84.7938 275.3405 13.21825780141485
