[{"OBJECT_NAME":"ONEWEB-0527","OBJECT_ID":"2022-166A","EPOCH":"2025-11-02T11:02:22.102656","MEAN_MOTION":13.21828055,"ECCENTRICITY":0.0002009,"INCLINATION":87.9172,"RA_OF_ASC_NODE":289.2316,"ARG_OF_PERICENTER":87.9625,"MEAN_ANOMALY":272.1739,"EPHEMERIS_TYPE":0,"CLASSIFICATION_TYPE":"U","NORAD_CAT_ID":54642,"ELEMENT_SET_NO":999,"REV_AT_EPOCH":14158,"BSTAR":-6.7713e-5,"MEAN_MOTION_DOT":-1.5e-7,"MEAN_MOTION_DDOT":0},{"OBJECT_NAME":"ONEWEB-0528","OBJECT_ID":"2022-166B","EPOCH":"2025-11-02T11:11:51.833760","MEAN_MOTION":13.21824349,"ECCENTRICITY":0.0002006,"INCLINATION":87.9173,"RA_OF_ASC_NODE":289.234,"ARG_OF_PERICENTER":89.0857,"MEAN_ANOMALY":271.0507,"EPHEMERIS_TYPE":0,"CLASSIFICATION_TYPE":"U","NORAD_CAT_ID":54643,"ELEMENT_SET_NO":999,"REV_AT_EPOCH":14159,"BSTAR":-0.00011522,"MEAN_MOTION_DOT":-3.5e-7,"MEAN_MOTION_DDOT":0},{"OBJECT_NAME":"ONEWEB-0539","OBJECT_ID":"2022-166C","EPOCH":"2025-11-02T10:17:22.566624","MEAN_MOTION":13.21827741,"ECCENTRICITY":0.0001745,"INCLINATION":87.9169,"RA_OF_ASC_NODE":289.2079,"ARG_OF_PERICENTER":93.0547,"MEAN_ANOMALY":267.0787,"EPHEMERIS_TYPE":0,"CLASSIFICATION_TYPE":"U","NORAD_CAT_ID":54644,"ELEMENT_SET_NO":999,"REV_AT_EPOCH":14158,"BSTAR":9.7469e-6,"MEAN_MOTION_DOT":1.7e-7,"MEAN_MOTION_DDOT":0},{"OBJECT_NAME":"ONEWEB-0540","OBJECT_ID":"2022-166D","EPOCH":"2025-11-02T10:27:03.066624","MEAN_MOTION":13.21827342,"ECCENTRICITY":0.0001738,"INCLINATION":87.9168,"RA_OF_ASC_NODE":289.2447,"ARG_OF_PERICENTER":91.7959,"MEAN_ANOMALY":268.3374,"EPHEMERIS_TYPE":0,"CLASSIFICATION_TYPE":"U","NORAD_CAT_ID":54645,"ELEMENT_SET_NO":999,"REV_AT_EPOCH":14157,"BSTAR":8.7629e-5,"MEAN_MOTION_DOT":4.9e-7,"MEAN_MOTION_DDOT":0},{"OBJECT_NAME":"ONEWEB-0542","OBJECT_ID":"2022-166E","EPOCH":"2025-11-02T10:31:34.197600","MEAN_MOTION":13.21830481,"ECCENTRICITY":0.0001571,"INCLINATION":87.9165,"RA_OF_ASC_NODE":289.2032,"ARG_OF_PERICENTER":89.8891,"MEAN_ANOMALY":270.2423,"EPHEMERIS_TYPE":0,"CLASSIFICATION_TYPE":"U","NORAD_CAT_ID":54646,"ELEMENT_SET_NO":999,"REV_AT_EPOCH":14158,"BSTAR":-0.0024133,"MEAN_MOTION_DOT":-9.84e-6,"MEAN_MOTION_DDOT":0},{"OBJECT_NAME":"ONEWEB-0545","OBJECT_ID":"2022-166F","EPOCH":"2025-11-02T11:30:48.907872","MEAN_MOTION":13.21825619,"ECCENTRICITY":0.0001488,"INCLINATION":87.9171,"RA_OF_ASC_NODE":289.2147,"ARG_OF_PERICENTER":96.1019,"MEAN_ANOMALY":264.0284,"EPHEMERIS_TYPE":0,"CLASSIFICATION_TYPE":"U","NORAD_CAT_ID":54647,"ELEMENT_SET_NO":999,"REV_AT_EPOCH":14155,"BSTAR":5.5147e-5,"MEAN_MOTION_DOT":3.6e-7,"MEAN_MOTION_DDOT":0},{"OBJECT_NAME":"ONEWEB-0580","OBJECT_ID":"2022-166G","EPOCH":"2025-11-02T10:52:53.772096","MEAN_MOTION":13.21826064,"ECCENTRICITY":0.0001539,"INCLINATION":87.9176,"RA_OF_ASC_NODE":289.2183,"ARG_OF_PERICENTER":85.7266,"MEAN_ANOMALY":274.4044,"EPHEMERIS_TYPE":0,"CLASSIFICATION_TYPE":"U","NORAD_CAT_ID":54648,"ELEMENT_SET_NO":999,"REV_AT_EPOCH":14159,"BSTAR":0.00022157,"MEAN_MOTION_DOT":1.05e-6,"MEAN_MOTION_DDOT":0},{"OBJECT_NAME":"ONEWEB-0582","OBJECT_ID":"2022-166H","EPOCH":"2025-11-02T11:54:31.840704","MEAN_MOTION":13.21827011,"ECCENTRICITY":0.000134,"INCLINATION":87.9171,"RA_OF_ASC_NODE":289.2029,"ARG_OF_PERICENTER":86.4776,"MEAN_ANOMALY":273.6511,"EPHEMERIS_TYPE":0,"CLASSIFICATION_TYPE":"U","NORAD_CAT_ID":54649,"ELEMENT_SET_NO":999,"REV_AT_EPOCH":14157,"BSTAR":0.00010259,"MEAN_MOTION_DOT":5.5e-7,"MEAN_MOTION_DDOT":0},{"OBJECT_NAME":"ONEWEB-0583","OBJECT_ID":"2022-166J","EPOCH":"2025-11-02T10:22:06.828672","MEAN_MOTION":13.21827683,"ECCENTRICITY":0.0001776,"INCLINATION":87.917,"RA_OF_ASC_NODE":289.2411,"ARG_OF_PERICENTER":90.0211,"MEAN_ANOMALY":270.1127,"EPHEMERIS_TYPE":0,"CLASSIFICATION_TYPE":"U","NORAD_CAT_ID":54650,"ELEMENT_SET_NO":999,"REV_AT_EPOCH":14157,"BSTAR":-6.586e-5,"MEAN_MOTION_DOT":-1.4e-7,"MEAN_MOTION_DDOT":0},{"OBJECT_NAME":"ONEWEB-0584","OBJECT_ID":"2022-166K","EPOCH":"2025-11-02T10:50:33.118080","MEAN_MOTION":13.21826587,"ECCENTRICITY":0.0001571,"INCLINATION":87.9173,"RA_OF_ASC_NODE":289.2222,"ARG_OF_PERICENTER":82.0069,"MEAN_ANOMALY":278.1244,"EPHEMERIS_TYPE":0,"CLASSIFICATION_TYPE":"U","NORAD_CAT_ID":54651,"ELEMENT_SET_NO":999,"REV_AT_EPOCH":14156,"BSTAR":5.818e-5,"MEAN_MOTION_DOT":3.7e-7,"MEAN_MOTION_DDOT":0},{"OBJECT_NAME":"ONEWEB-0585","OBJECT_ID":"2022-166L","EPOCH":"2025-11-02T11:26:03.704064","MEAN_MOTION":13.2182316,"ECCENTRICITY":0.0002013,"INCLINATION":87.9174,"RA_OF_ASC_NODE":289.2027,"ARG_OF_PERICENTER":85.9468,"MEAN_ANOMALY":274.1896,"EPHEMERIS_TYPE":0,"CLASSIFICATION_TYPE":"U","NORAD_CAT_ID":54652,"ELEMENT_SET_NO":999,"REV_AT_EPOCH":14157,"BSTAR":2.4502e-5,"MEAN_MOTION_DOT":2.3e-7,"MEAN_MOTION_DDOT":0},{"OBJECT_NAME":"ONEWEB-0586","OBJECT_ID":"2022-166M","EPOCH":"2025-11-02T11:45:02.982240","MEAN_MOTION":13.21826979,"ECCENTRICITY":0.0001765,"INCLINATION":87.9168,"RA_OF_ASC_NODE":289.226,"ARG_OF_PERICENTER":89.3157,"MEAN_ANOMALY":270.8179,"EPHEMERIS_TYPE":0,"CLASSIFICATION_TYPE":"U","NORAD_CAT_ID":54653,"ELEMENT_SET_NO":999,"REV_AT_EPOCH":14157,"BSTAR":0.0001008,"MEAN_MOTION_DOT":5.5e-7,"MEAN_MOTION_DDOT":0},{"OBJECT_NAME":"ONEWEB-0587","OBJECT_ID":"2022-166N","EPOCH":"2025-11-02T11:59:16.025856","MEAN_MOTION":13.21827262,"ECCENTRICITY":0.0002291,"INCLINATION":87.9179,"RA_OF_ASC_NODE":289.1757,"ARG_OF_PERICENTER":85.1736,"MEAN_ANOMALY":274.9659,"EPHEMERIS_TYPE":0,"CLASSIFICATION_TYPE":"U","NORAD_CAT_ID":54654,"ELEMENT_SET_NO":999,"REV_AT_EPOCH":14173,"BSTAR":0.00018346,"MEAN_MOTION_DOT":8.9e-7,"MEAN_MOTION_DDOT":0},{"OBJECT_NAME":"ONEWEB-0589","OBJECT_ID":"2022-166P","EPOCH":"2025-11-02T11:40:16.254336","MEAN_MOTION":13.21828203,"ECCENTRICITY":0.0001101,"INCLINATION":87.917,"RA_OF_ASC_NODE":289.2175,"ARG_OF_PERICENTER":76.3051,"MEAN_ANOMALY":283.8206,"EPHEMERIS_TYPE":0,"CLASSIFICATION_TYPE":"U","NORAD_CAT_ID":54655,"ELEMENT_SET_NO":999,"REV_AT_EPOCH":14159,"BSTAR":-0.00013941,"MEAN_MOTION_DOT":-4.5e-7,"MEAN_MOTION_DDOT":0},{"OBJECT_NAME":"ONEWEB-0590","OBJECT_ID":"2022-166Q","EPOCH":"2025-11-02T10:26:39.385248","MEAN_MOTION":13.21826314,"ECCENTRICITY":0.0001974,"INCLINATION":87.9168,"RA_OF_ASC_NODE":289.2037,"ARG_OF_PERICENTER":73.9927,"MEAN_ANOMALY":286.1425,"EPHEMERIS_TYPE":0,"CLASSIFICATION_TYPE":"U","NORAD_CAT_ID":54656,"ELEMENT_SET_NO":999,"REV_AT_EPOCH":14157,"BSTAR":0.00036374,"MEAN_MOTION_DOT":1.63e-6,"MEAN_MOTION_DDOT":0},{"OBJECT_NAME":"ONEWEB-0591","OBJECT_ID":"2022-166R","EPOCH":"2025-11-02T10:43:26.664096","MEAN_MOTION":13.21825712,"ECCENTRICITY":0.0001831,"INCLINATION":87.9168,"RA_OF_ASC_NODE":289.2251,"ARG_OF_PERICENTER":84.5619,"MEAN_ANOMALY":275.5724,"EPHEMERIS_TYPE":0,"CLASSIFICATION_TYPE":"U","NORAD_CAT_ID":54657,"ELEMENT_SET_NO":999,"REV_AT_EPOCH":14160,"BSTAR":0.00030795,"MEAN_MOTION_DOT":1.4e-6,"MEAN_MOTION_DDOT":0},{"OBJECT_NAME":"ONEWEB-0592","OBJECT_ID":"2022-166S","EPOCH":"2025-11-02T10:48:11.162880","MEAN_MOTION":13.2182578,"ECCENTRICITY":0.0001826,"INCLINATION":87.918,"RA_OF_ASC_NODE":289.1834,"ARG_OF_PERICENTER":84.7938,"MEAN_ANOMALY":275.3405,"EPHEMERIS_TYPE":0,"CLASSIFICATION_TYPE":"U","NORAD_CAT_ID":54658,"ELEMENT_SET_NO":999,"REV_AT_EPOCH":14148,"BSTAR":0.00061197,"MEAN_MOTION_DOT":2.66e-6,"MEAN_MOTION_DDOT":0}]
